{
  "type": "FeatureCollection",
  "features": [
    {
      "type": "Feature",
      "properties": {
        "norad_id": 31724,
        "name": "FENGYUN 1C DEB",
        "group": "fengyun-1c-debris",
        "lat": 67.98922512277302,
        "lon": -22.073535646054292,
        "alt_km": 819.6062209052234,
        "timestamp": "2025-12-18T07:01:54.873519+00:00",
        "meta_object_name": "FENGYUN 1C DEB",
        "meta_object_id": "1999-025CDX",
        "meta_epoch": "2025-12-16T06:38:52.569312",
        "meta_mean_motion": 14.49173964,
        "meta_eccentricity": 0.01518621,
        "meta_inclination": 97.8539,
        "meta_ra_of_asc_node": 356.0141,
        "meta_arg_of_pericenter": 231.2157,
        "meta_mean_anomaly": 127.5392,
        "meta_ephemeris_type": 0,
        "meta_classification_type": "U",
        "meta_norad_cat_id": 31724,
        "meta_element_set_no": 999,
        "meta_rev_at_epoch": 64543,
        "meta_bstar": 0.0016008711,
        "meta_mean_motion_dot": 7.016e-05,
        "meta_mean_motion_ddot": 0,
        "tle_line1": "1 31724U 99025CDX 25350.27699733  .00007016  00000+0  16009-2 0  9994",
        "tle_line2": "2 31724  97.8539 356.0141 0151862 231.2157 127.5392 14.49173964645433"
      },
      "geometry": {
        "type": "Point",
        "coordinates": [
          -22.073535646054292,
          67.98922512277302
        ]
      }
    },
    {
      "type": "Feature",
      "properties": {
        "norad_id": 31725,
        "name": "FENGYUN 1C DEB",
        "group": "fengyun-1c-debris",
        "lat": 70.52755849677185,
        "lon": 55.44888919550558,
        "alt_km": 1762.7678760675344,
        "timestamp": "2025-12-18T07:01:54.873529+00:00",
        "meta_object_name": "FENGYUN 1C DEB",
        "meta_object_id": "1999-025CDY",
        "meta_epoch": "2025-12-17T21:05:21.230880",
        "meta_mean_motion": 12.79203585,
        "meta_eccentricity": 0.06944571,
        "meta_inclination": 99.1801,
        "meta_ra_of_asc_node": 207.8945,
        "meta_arg_of_pericenter": 323.3807,
        "meta_mean_anomaly": 32.1667,
        "meta_ephemeris_type": 0,
        "meta_classification_type": "U",
        "meta_norad_cat_id": 31725,
        "meta_element_set_no": 999,
        "meta_rev_at_epoch": 86547,
        "meta_bstar": 0.0022154725,
        "meta_mean_motion_dot": 1.348e-05,
        "meta_mean_motion_ddot": 0,
        "tle_line1": "1 31725U 99025CDY 25351.87871795  .00001348  00000+0  22155-2 0  9993",
        "tle_line2": "2 31725  99.1801 207.8945 0694457 323.3807  32.1667 12.79203585865471"
      },
      "geometry": {
        "type": "Point",
        "coordinates": [
          55.44888919550558,
          70.52755849677185
        ]
      }
    },
    {
      "type": "Feature",
      "properties": {
        "norad_id": 31727,
        "name": "FENGYUN 1C DEB",
        "group": "fengyun-1c-debris",
        "lat": -17.212066691502756,
        "lon": -78.26484790460265,
        "alt_km": 786.557894141265,
        "timestamp": "2025-12-18T07:01:54.873540+00:00",
        "meta_object_name": "FENGYUN 1C DEB",
        "meta_object_id": "1999-025CEA",
        "meta_epoch": "2025-12-16T14:04:45.981984",
        "meta_mean_motion": 14.37061584,
        "meta_eccentricity": 0.00322916,
        "meta_inclination": 98.8646,
        "meta_ra_of_asc_node": 102.7492,
        "meta_arg_of_pericenter": 328.3079,
        "meta_mean_anomaly": 46.6049,
        "meta_ephemeris_type": 0,
        "meta_classification_type": "U",
        "meta_norad_cat_id": 31727,
        "meta_element_set_no": 999,
        "meta_rev_at_epoch": 71724,
        "meta_bstar": 0.0014489816,
        "meta_mean_motion_dot": 4.282e-05,
        "meta_mean_motion_ddot": 0,
        "tle_line1": "1 31727U 99025CEA 25350.58664331  .00004282  00000+0  14490-2 0  9991",
        "tle_line2": "2 31727  98.8646 102.7492 0032291 328.3079  46.6049 14.37061584717246"
      },
      "geometry": {
        "type": "Point",
        "coordinates": [
          -78.26484790460265,
          -17.212066691502756
        ]
      }
    },
    {
      "type": "Feature",
      "properties": {
        "norad_id": 31731,
        "name": "FENGYUN 1C DEB",
        "group": "fengyun-1c-debris",
        "lat": 74.7058086005442,
        "lon": 4.127156902275244,
        "alt_km": 742.0157480999915,
        "timestamp": "2025-12-18T07:01:54.873550+00:00",
        "meta_object_name": "FENGYUN 1C DEB",
        "meta_object_id": "1999-025CEE",
        "meta_epoch": "2025-11-27T02:07:07.827456",
        "meta_mean_motion": 14.40063792,
        "meta_eccentricity": 0.00116613,
        "meta_inclination": 99.3084,
        "meta_ra_of_asc_node": 17.9462,
        "meta_arg_of_pericenter": 144.9647,
        "meta_mean_anomaly": 215.2308,
        "meta_ephemeris_type": 0,
        "meta_classification_type": "U",
        "meta_norad_cat_id": 31731,
        "meta_element_set_no": 999,
        "meta_rev_at_epoch": 95605,
        "meta_bstar": 0.0018623031,
        "meta_mean_motion_dot": 5.831e-05,
        "meta_mean_motion_ddot": 0,
        "tle_line1": "1 31731U 99025CEE 25331.08828504  .00005831  00000+0  18623-2 0  9997",
        "tle_line2": "2 31731  99.3084  17.9462 0011661 144.9647 215.2308 14.40063792956051"
      },
      "geometry": {
        "type": "Point",
        "coordinates": [
          4.127156902275244,
          74.7058086005442
        ]
      }
    },
    {
      "type": "Feature",
      "properties": {
        "norad_id": 31732,
        "name": "FENGYUN 1C DEB",
        "group": "fengyun-1c-debris",
        "lat": 19.061035608895107,
        "lon": -150.21029134528712,
        "alt_km": 841.2598963022747,
        "timestamp": "2025-12-18T07:01:54.873560+00:00",
        "meta_object_name": "FENGYUN 1C DEB",
        "meta_object_id": "1999-025CEF",
        "meta_epoch": "2025-12-17T13:15:59.741856",
        "meta_mean_motion": 14.1225966,
        "meta_eccentricity": 0.00398279,
        "meta_inclination": 98.5726,
        "meta_ra_of_asc_node": 26.0942,
        "meta_arg_of_pericenter": 231.4912,
        "meta_mean_anomaly": 128.2686,
        "meta_ephemeris_type": 0,
        "meta_classification_type": "U",
        "meta_norad_cat_id": 31732,
        "meta_element_set_no": 999,
        "meta_rev_at_epoch": 64398,
        "meta_bstar": 0.00028723871,
        "meta_mean_motion_dot": 4.9e-06,
        "meta_mean_motion_ddot": 0,
        "tle_line1": "1 31732U 99025CEF 25351.55277479  .00000490  00000+0  28724-3 0  9991",
        "tle_line2": "2 31732  98.5726  26.0942 0039827 231.4912 128.2686 14.12259660643988"
      },
      "geometry": {
        "type": "Point",
        "coordinates": [
          -150.21029134528712,
          19.061035608895107
        ]
      }
    },
    {
      "type": "Feature",
      "properties": {
        "norad_id": 31734,
        "name": "FENGYUN 1C DEB",
        "group": "fengyun-1c-debris",
        "lat": 39.659428891262436,
        "lon": -22.828366254519533,
        "alt_km": 742.7514200709829,
        "timestamp": "2025-12-18T07:01:54.873570+00:00",
        "meta_object_name": "FENGYUN 1C DEB",
        "meta_object_id": "1999-025CEH",
        "meta_epoch": "2025-12-17T05:38:30.357312",
        "meta_mean_motion": 14.2902964,
        "meta_eccentricity": 0.01035042,
        "meta_inclination": 98.4953,
        "meta_ra_of_asc_node": 343.2584,
        "meta_arg_of_pericenter": 354.3593,
        "meta_mean_anomaly": 5.6416,
        "meta_ephemeris_type": 0,
        "meta_classification_type": "U",
        "meta_norad_cat_id": 31734,
        "meta_element_set_no": 999,
        "meta_rev_at_epoch": 96515,
        "meta_bstar": 0.00042036115,
        "meta_mean_motion_dot": 1.084e-05,
        "meta_mean_motion_ddot": 0,
        "tle_line1": "1 31734U 99025CEH 25351.23507358  .00001084  00000+0  42036-3 0  9992",
        "tle_line2": "2 31734  98.4953 343.2584 0103504 354.3593   5.6416 14.29029640965157"
      },
      "geometry": {
        "type": "Point",
        "coordinates": [
          -22.828366254519533,
          39.659428891262436
        ]
      }
    },
    {
      "type": "Feature",
      "properties": {
        "norad_id": 31735,
        "name": "FENGYUN 1C DEB",
        "group": "fengyun-1c-debris",
        "lat": -35.38730308290886,
        "lon": -90.4976008530483,
        "alt_km": 730.181412654727,
        "timestamp": "2025-12-18T07:01:54.873582+00:00",
        "meta_object_name": "FENGYUN 1C DEB",
        "meta_object_id": "1999-025CEJ",
        "meta_epoch": "2025-12-16T02:25:27.533568",
        "meta_mean_motion": 14.42553098,
        "meta_eccentricity": 0.00588826,
        "meta_inclination": 98.5801,
        "meta_ra_of_asc_node": 93.4541,
        "meta_arg_of_pericenter": 274.0925,
        "meta_mean_anomaly": 85.3535,
        "meta_ephemeris_type": 0,
        "meta_classification_type": "U",
        "meta_norad_cat_id": 31735,
        "meta_element_set_no": 999,
        "meta_rev_at_epoch": 96713,
        "meta_bstar": 0.00031395089,
        "meta_mean_motion_dot": 1.017e-05,
        "meta_mean_motion_ddot": 0,
        "tle_line1": "1 31735U 99025CEJ 25350.10101312  .00001017  00000+0  31395-3 0  9990",
        "tle_line2": "2 31735  98.5801  93.4541 0058882 274.0925  85.3535 14.42553098967134"
      },
      "geometry": {
        "type": "Point",
        "coordinates": [
          -90.4976008530483,
          -35.38730308290886
        ]
      }
    }
  ]
}